{
  "norad_id": 67085,
  "name": "STARLINK-35794",
  "history": [
    {
      "epoch": "2026-03-28T21:27:47.056032Z",
      "apogee_km": 570.8971819251583,
      "perigee_km": 568.1698043963634,
      "latitude_deg": 1.5495287850602925e-05,
      "longitude_deg": 177.80004587497137,
      "height_km": 571.8870802182845,
      "semi_major_axis_km": 6947.670493160761,
      "eccentricity": 0.00019628,
      "inclination_deg": 70.0012,
      "raan_deg": 326.0543,
      "arg_perigee_deg": 273.0988,
      "mean_anomaly_deg": 86.9947,
      "mean_motion_rev_day": 14.99146042
    },
    {
      "epoch": "2026-03-29T02:16:01.852896Z",
      "apogee_km": 570.8830231856227,
      "perigee_km": 568.1734337465223,
      "latitude_deg": 8.811432042386924e-05,
      "longitude_deg": 105.03592077029064,
      "height_km": 571.9179624545817,
      "semi_major_axis_km": 6947.665228466072,
      "eccentricity": 0.000195,
      "inclination_deg": 70.001,
      "raan_deg": 325.5491,
      "arg_perigee_deg": 271.588,
      "mean_anomaly_deg": 88.5057,
      "mean_motion_rev_day": 14.99147746
    },
    {
      "epoch": "2026-03-30T00:41:11.152320Z",
      "apogee_km": 570.8402275157523,
      "perigee_km": 568.1887258061988,
      "latitude_deg": -7.906727112326443e-05,
      "longitude_deg": 125.46838727537893,
      "height_km": 571.9691893795048,
      "semi_major_axis_km": 6947.651476660975,
      "eccentricity": 0.00019082,
      "inclination_deg": 70.0008,
      "raan_deg": 323.1911,
      "arg_perigee_deg": 268.813,
      "mean_anomaly_deg": 91.281,
      "mean_motion_rev_day": 14.99152197
    },
    {
      "epoch": "2026-03-30T15:05:55.964544Z",
      "apogee_km": 570.7852021977842,
      "perigee_km": 568.3222458361206,
      "latitude_deg": 1.59422689891226e-05,
      "longitude_deg": -92.82629344099185,
      "height_km": 572.0657282448699,
      "semi_major_axis_km": 6947.690724016952,
      "eccentricity": 0.00017725,
      "inclination_deg": 70.0009,
      "raan_deg": 321.675,
      "arg_perigee_deg": 266.0457,
      "mean_anomaly_deg": 94.05,
      "mean_motion_rev_day": 14.99139494
    },
    {
      "epoch": "2026-03-30T21:30:15.833376Z",
      "apogee_km": 570.8409917631134,
      "perigee_km": 568.2572862417419,
      "latitude_deg": -3.52822809625227e-05,
      "longitude_deg": 170.1540362033063,
      "height_km": 571.9829146647918,
      "semi_major_axis_km": 6947.686139002428,
      "eccentricity": 0.00018594,
      "inclination_deg": 70.0008,
      "raan_deg": 321.0012,
      "arg_perigee_deg": 269.7072,
      "mean_anomaly_deg": 90.3874,
      "mean_motion_rev_day": 14.99140978
    },
    {
      "epoch": "2026-03-31T21:31:30.279936Z",
      "apogee_km": 570.9186827483063,
      "perigee_km": 568.1646229303205,
      "latitude_deg": -3.444214479673671e-05,
      "longitude_deg": 166.33054962873135,
      "height_km": 571.9949794176046,
      "semi_major_axis_km": 6947.678652839313,
      "eccentricity": 0.0001982,
      "inclination_deg": 70.0003,
      "raan_deg": 318.4744,
      "arg_perigee_deg": 268.9163,
      "mean_anomaly_deg": 91.1769,
      "mean_motion_rev_day": 14.99143401
    },
    {
      "epoch": "2026-04-01T21:32:44.402496Z",
      "apogee_km": 570.9349077668548,
      "perigee_km": 568.1280497014459,
      "latitude_deg": -4.791121198486874e-08,
      "longitude_deg": 162.50792876885373,
      "height_km": 571.9812812809975,
      "semi_major_axis_km": 6947.66847873415,
      "eccentricity": 0.000202,
      "inclination_deg": 70.0004,
      "raan_deg": 315.9471,
      "arg_perigee_deg": 269.0826,
      "mean_anomaly_deg": 91.0102,
      "mean_motion_rev_day": 14.99146694
    },
    {
      "epoch": "2026-04-02T13:33:33.748416Z",
      "apogee_km": 570.8864359687686,
      "perigee_km": 568.1637861406889,
      "latitude_deg": -8.626991780876667e-05,
      "longitude_deg": -80.04016950683013,
      "height_km": 571.9427924161921,
      "semi_major_axis_km": 6947.6621110547285,
      "eccentricity": 0.00019594,
      "inclination_deg": 70.0002,
      "raan_deg": 314.2623,
      "arg_perigee_deg": 270.403,
      "mean_anomaly_deg": 89.6904,
      "mean_motion_rev_day": 14.99148755
    },
    {
      "epoch": "2026-04-02T21:33:58.245120Z",
      "apogee_km": 570.8051111664054,
      "perigee_km": 568.1996074538774,
      "latitude_deg": 3.510328424814598e-05,
      "longitude_deg": 158.68637727813962,
      "height_km": 571.8984126819761,
      "semi_major_axis_km": 6947.639359310141,
      "eccentricity": 0.00018751,
      "inclination_deg": 70.0005,
      "raan_deg": 313.4197,
      "arg_perigee_deg": 271.3688,
      "mean_anomaly_deg": 88.7257,
      "mean_motion_rev_day": 14.99156119
    },
    {
      "epoch": "2026-04-03T18:23:02.768064Z",
      "apogee_km": 570.7448419371212,
      "perigee_km": 568.3367768083926,
      "latitude_deg": -4.91212193380944e-06,
      "longitude_deg": -156.6272445125651,
      "height_km": 571.9121776416006,
      "semi_major_axis_km": 6947.677809372757,
      "eccentricity": 0.0001733,
      "inclination_deg": 70.0007,
      "raan_deg": 311.2299,
      "arg_perigee_deg": 272.6487,
      "mean_anomaly_deg": 87.4474,
      "mean_motion_rev_day": 14.99143674
    },
    {
      "epoch": "2026-04-04T18:24:17.097984Z",
      "apogee_km": 570.8253505138355,
      "perigee_km": 568.2533207343877,
      "latitude_deg": -1.019018207401309e-05,
      "longitude_deg": -160.45044809653405,
      "height_km": 571.8545829952742,
      "semi_major_axis_km": 6947.676335624112,
      "eccentricity": 0.0001851,
      "inclination_deg": 70.0006,
      "raan_deg": 308.7029,
      "arg_perigee_deg": 274.9908,
      "mean_anomaly_deg": 85.104,
      "mean_motion_rev_day": 14.99144151
    },
    {
      "epoch": "2026-04-05T07:12:56.845152Z",
      "apogee_km": 570.8130467766941,
      "perigee_km": 568.2938142265939,
      "latitude_deg": 2.8195966833642294e-05,
      "longitude_deg": 5.509021084534166,
      "height_km": 571.9604821164612,
      "semi_major_axis_km": 6947.690430501644,
      "eccentricity": 0.0001813,
      "inclination_deg": 70.0002,
      "raan_deg": 307.3541,
      "arg_perigee_deg": 270.9104,
      "mean_anomaly_deg": 89.1848,
      "mean_motion_rev_day": 14.99139589
    },
    {
      "epoch": "2026-04-05T20:01:36.645888Z",
      "apogee_km": 570.816042691712,
      "perigee_km": 568.2926411963181,
      "latitude_deg": -2.7330842907484012e-05,
      "longitude_deg": 171.47003226418826,
      "height_km": 572.1001162026587,
      "semi_major_axis_km": 6947.691341944015,
      "eccentricity": 0.0001816,
      "inclination_deg": 70.0002,
      "raan_deg": 306.0071,
      "arg_perigee_deg": 264.6022,
      "mean_anomaly_deg": 95.493,
      "mean_motion_rev_day": 14.99139294
    },
    {
      "epoch": "2026-04-05T23:13:46.637760Z",
      "apogee_km": 570.9170679322715,
      "perigee_km": 568.2187183058822,
      "latitude_deg": -5.109636988918007e-06,
      "longitude_deg": 122.9604739519911,
      "height_km": 572.0420882538139,
      "semi_major_axis_km": 6947.704893119077,
      "eccentricity": 0.00019419,
      "inclination_deg": 70.0002,
      "raan_deg": 305.6707,
      "arg_perigee_deg": 268.0047,
      "mean_anomaly_deg": 92.089,
      "mean_motion_rev_day": 14.99134908
    },
    {
      "epoch": "2026-04-07T20:04:05.441376Z",
      "apogee_km": 570.9430040609277,
      "perigee_km": 568.127807202166,
      "latitude_deg": 5.432349788268172e-05,
      "longitude_deg": 163.8231879899026,
      "height_km": 572.010855527327,
      "semi_major_axis_km": 6947.672405631547,
      "eccentricity": 0.0002026,
      "inclination_deg": 70.0005,
      "raan_deg": 300.9532,
      "arg_perigee_deg": 268.0414,
      "mean_anomaly_deg": 92.0514,
      "mean_motion_rev_day": 14.99145423
    },
    {
      "epoch": "2026-04-08T13:40:59.661408Z",
      "apogee_km": 570.9361769691286,
      "perigee_km": 568.1150090966012,
      "latitude_deg": 1.331997321202499e-05,
      "longitude_deg": -102.97907074761554,
      "height_km": 571.9857476672514,
      "semi_major_axis_km": 6947.662593032865,
      "eccentricity": 0.00020303,
      "inclination_deg": 70.0007,
      "raan_deg": 299.1003,
      "arg_perigee_deg": 268.6681,
      "mean_anomaly_deg": 91.4246,
      "mean_motion_rev_day": 14.99148599
    },
    {
      "epoch": "2026-04-09T18:30:28.573056Z",
      "apogee_km": 570.6170647833396,
      "perigee_km": 568.4174374474369,
      "latitude_deg": -1.2179115621206689e-05,
      "longitude_deg": -179.56393701734677,
      "height_km": 572.1083783968484,
      "semi_major_axis_km": 6947.6542511153875,
      "eccentricity": 0.0001583,
      "inclination_deg": 70.0018,
      "raan_deg": 296.0697,
      "arg_perigee_deg": 261.4141,
      "mean_anomaly_deg": 98.6839,
      "mean_motion_rev_day": 14.99151299
    },
    {
      "epoch": "2026-04-10T05:43:03.330336Z",
      "apogee_km": 570.7441626073196,
      "perigee_km": 568.329151244172,
      "latitude_deg": -3.628191935239504e-05,
      "longitude_deg": 10.650166860116888,
      "height_km": 571.9997585945708,
      "semi_major_axis_km": 6947.6736569257455,
      "eccentricity": 0.0001738,
      "inclination_deg": 70.0013,
      "raan_deg": 294.889,
      "arg_perigee_deg": 268.2904,
      "mean_anomaly_deg": 91.8056,
      "mean_motion_rev_day": 14.99145018
    },
    {
      "epoch": "2026-04-11T18:33:54.000288Z",
      "apogee_km": 572.7838705338172,
      "perigee_km": 570.3570326917134,
      "latitude_deg": -2.903059114165577e-06,
      "longitude_deg": 172.55288183276272,
      "height_km": 574.2897423598598,
      "semi_major_axis_km": 6949.707451612765,
      "eccentricity": 0.0001746,
      "inclination_deg": 70.0035,
      "raan_deg": 291.0161,
      "arg_perigee_deg": 256.0375,
      "mean_anomaly_deg": 104.059,
      "mean_motion_rev_day": 14.98486991
    }
  ]
}